{"type": "FeatureCollection", "features": [ {"type": "Feature", "properties": {"norad_id": 66580, "name": "STARLINK-35872", "group": "last-30-days", "lat": 6.389465029438923, "lon": 93.8494196204882, "alt_km": 413.3788716580284, "timestamp": "2025-12-18T13:51:48.378690+00:00", "meta": {"OBJECT_NAME": "STARLINK-35872", "OBJECT_ID": "2025-268Z", "EPOCH": "2025-12-18T07:38:22.511904", "MEAN_MOTION": 15.50635749, "ECCENTRICITY": 4.474e-05, "INCLINATION": 43.0009, "RA_OF_ASC_NODE": 88.465, "ARG_OF_PERICENTER": 28.7877, "MEAN_ANOMALY": 331.3008, "EPHEMERIS_TYPE": 0, "CLASSIFICATION_TYPE": "U", "NORAD_CAT_ID": 66580, "ELEMENT_SET_NO": 999, "REV_AT_EPOCH": 549, "BSTAR": 0.0012493236, "MEAN_MOTION_DOT": 0.00073793, "MEAN_MOTION_DDOT": 0}, "tle": {"line1": "1 66580U 25268Z   25352.31831611  .00073793  00000+0  12493-2 0  9998", "line2": "2 66580  43.0009  88.4650 0000447  28.7877 331.3008 15.50635749  5499"}}, "geometry": {"type": "Point", "coordinates": [93.8494196204882, 6.389465029438923]}}, {"type": "Feature", "properties": {"norad_id": 66581, "name": "STARLINK-35744", "group": "last-30-days", "lat": 7.725659090482373, "lon": 95.31237668863659, "alt_km": 413.78019809883335, "timestamp": "2025-12-18T13:51:48.378701+00:00", "meta": {"OBJECT_NAME": "STARLINK-35744", "OBJECT_ID": "2025-268AA", "EPOCH": "2025-12-17T23:54:05.291712", "MEAN_MOTION": 15.50595637, "ECCENTRICITY": 0.00023336, "INCLINATION": 43.0009, "RA_OF_ASC_NODE": 90.3454, "ARG_OF_PERICENTER": 267.014, "MEAN_ANOMALY": 93.0453, "EPHEMERIS_TYPE": 0, "CLASSIFICATION_TYPE": "U", "NORAD_CAT_ID": 66581, "ELEMENT_SET_NO": 999, "REV_AT_EPOCH": 544, "BSTAR": 0.0010157635, "MEAN_MOTION_DOT": 0.00059743, "MEAN_MOTION_DDOT": 0}, "tle": {"line1": "1 66581U 25268AA  25351.99589458  .00059743  00000+0  10158-2 0  9996", "line2": "2 66581  43.0009  90.3454 0002333 267.0140  93.0453 15.50595637  5443"}}, "geometry": {"type": "Point", "coordinates": [95.31237668863659, 7.725659090482373]}}, {"type": "Feature", "properties": {"norad_id": 66582, "name": "STARLINK-35746", "group": "last-30-days", "lat": 8.983223095406938, "lon": 96.70509024883549, "alt_km": 412.9285758735996, "timestamp": "2025-12-18T13:51:48.378712+00:00", "meta": {"OBJECT_NAME": "STARLINK-35746", "OBJECT_ID": "2025-268AB", "EPOCH": "2025-12-18T07:37:23.154240", "MEAN_MOTION": 15.50640666, "ECCENTRICITY": 6.327e-05, "INCLINATION": 42.9985, "RA_OF_ASC_NODE": 88.4588, "ARG_OF_PERICENTER": 47.6337, "MEAN_ANOMALY": 312.4577, "EPHEMERIS_TYPE": 0, "CLASSIFICATION_TYPE": "U", "NORAD_CAT_ID": 66582, "ELEMENT_SET_NO": 999, "REV_AT_EPOCH": 549, "BSTAR": 0.001215039, "MEAN_MOTION_DOT": 0.00071752, "MEAN_MOTION_DDOT": 0}, "tle": {"line1": "1 66582U 25268AB  25352.31762910  .00071752  00000+0  12150-2 0  9998", "line2": "2 66582  42.9985  88.4588 0000632  47.6337 312.4577 15.50640666  5494"}}, "geometry": {"type": "Point", "coordinates": [96.70509024883549, 8.983223095406938]}}, {"type": "Feature", "properties": {"norad_id": 66583, "name": "STARLINK-35941", "group": "last-30-days", "lat": 10.269167868982246, "lon": 98.14390787131126, "alt_km": 412.82291827990593, "timestamp": "2025-12-18T13:51:48.378723+00:00", "meta": {"OBJECT_NAME": "STARLINK-35941", "OBJECT_ID": "2025-268AC", "EPOCH": "2025-12-18T07:36:53.504352", "MEAN_MOTION": 15.50641573, "ECCENTRICITY": 6.686e-05, "INCLINATION": 42.9979, "RA_OF_ASC_NODE": 88.4554, "ARG_OF_PERICENTER": 67.7089, "MEAN_ANOMALY": 292.3842, "EPHEMERIS_TYPE": 0, "CLASSIFICATION_TYPE": "U", "NORAD_CAT_ID": 66583, "ELEMENT_SET_NO": 999, "REV_AT_EPOCH": 549, "BSTAR": 0.0011468369, "MEAN_MOTION_DOT": 0.00067672, "MEAN_MOTION_DDOT": 0}, "tle": {"line1": "1 66583U 25268AC  25352.31728593  .00067672  00000+0  11468-2 0  9995", "line2": "2 66583  42.9979  88.4554 0000668  67.7089 292.3842 15.50641573  5496"}}, "geometry": {"type": "Point", "coordinates": [98.14390787131126, 10.269167868982246]}}, {"type": "Feature", "properties": {"norad_id": 66584, "name": "STARLINK-35939", "group": "last-30-days", "lat": 11.548426027999332, "lon": 99.59143550257595, "alt_km": 414.0099931312179, "timestamp": "2025-12-18T13:51:48.378736+00:00", "meta": {"OBJECT_NAME": "STARLINK-35939", "OBJECT_ID": "2025-268AD", "EPOCH": "2025-12-18T07:36:23.720544", "MEAN_MOTION": 15.50638957, "ECCENTRICITY": 0.00019372, "INCLINATION": 42.9936, "RA_OF_ASC_NODE": 88.4476, "ARG_OF_PERICENTER": 162.9241, "MEAN_ANOMALY": 197.1685, "EPHEMERIS_TYPE": 0, "CLASSIFICATION_TYPE": "U", "NORAD_CAT_ID": 66584, "ELEMENT_SET_NO": 999, "REV_AT_EPOCH": 549, "BSTAR": 0.001153067, "MEAN_MOTION_DOT": 0.00068041, "MEAN_MOTION_DDOT": 0}, "tle": {"line1": "1 66584U 25268AD  25352.31694121  .00068041  00000+0  11531-2 0  9997", "line2": "2 66584  42.9936  88.4476 0001937 162.9241 197.1685 15.50638957  5490"}}, "geometry": {"type": "Point", "coordinates": [99.59143550257595, 11.548426027999332]}}, {"type": "Feature", "properties": {"norad_id": 66585, "name": "STARLINK-35963", "group": "last-30-days", "lat": 12.82295859024361, "lon": 101.05923922330575, "alt_km": 413.6926225553898, "timestamp": "2025-12-18T13:51:48.378747+00:00", "meta": {"OBJECT_NAME": "STARLINK-35963", "OBJECT_ID": "2025-268AE", "EPOCH": "2025-12-18T07:35:54.039552", "MEAN_MOTION": 15.50640131, "ECCENTRICITY": 0.00016907, "INCLINATION": 42.9937, "RA_OF_ASC_NODE": 88.4454, "ARG_OF_PERICENTER": 166.7259, "MEAN_ANOMALY": 193.3646, "EPHEMERIS_TYPE": 0, "CLASSIFICATION_TYPE": "U", "NORAD_CAT_ID": 66585, "ELEMENT_SET_NO": 999, "REV_AT_EPOCH": 549, "BSTAR": 0.001151766, "MEAN_MOTION_DOT": 0.00067965, "MEAN_MOTION_DDOT": 0}, "tle": {"line1": "1 66585U 25268AE  25352.31659768  .00067965  00000+0  11518-2 0  9995", "line2": "2 66585  42.9937  88.4454 0001690 166.7259 193.3646 15.50640131  5497"}}, "geometry": {"type": "Point", "coordinates": [101.05923922330575, 12.82295859024361]}}, {"type": "Feature", "properties": {"norad_id": 66586, "name": "TJS-21", "group": "last-30-days", "lat": 48.452574046723235, "lon": -52.96113212111411, "alt_km": 26697.0516946639, "timestamp": "2025-12-18T13:51:48.378764+00:00", "meta": {"OBJECT_NAME": "TJS-21", "OBJECT_ID": "2025-269A", "EPOCH": "2025-12-15T05:12:47.484864", "MEAN_MOTION": 2.00575027, "ECCENTRICITY": 0.68062948, "INCLINATION": 63.2717, "RA_OF_ASC_NODE": 162.0883, "ARG_OF_PERICENTER": 269.7594, "MEAN_ANOMALY": 18.6638, "EPHEMERIS_TYPE": 0, "CLASSIFICATION_TYPE": "U", "NORAD_CAT_ID": 66586, "ELEMENT_SET_NO": 999, "REV_AT_EPOCH": 48, "BSTAR": -0.049388688, "MEAN_MOTION_DOT": 1.099e-05, "MEAN_MOTION_DDOT": 0}, "tle": {"line1": "1 66586U 25269A   25349.21721626  .00001099  00000+0 -49389-1 0  9998", "line2": "2 66586  63.2717 162.0883 6806294 269.7594  18.6638  2.00575027   486"}}, "geometry": {"type": "Point", "coordinates": [-52.96113212111411, 48.452574046723235]}}, {"type": "Feature", "properties": {"norad_id": 66587, "name": "CZ-3B R/B", "group": "last-30-days", "lat": 49.550867453849094, "lon": -82.10705868040576, "alt_km": 14565.86881996418, "timestamp": "2025-12-18T13:51:48.378780+00:00", "meta": {"OBJECT_NAME": "CZ-3B R/B", "OBJECT_ID": "2025-269B", "EPOCH": "2025-12-17T04:50:14.865216", "MEAN_MOTION": 2.03937792, "ECCENTRICITY": 0.75168551, "INCLINATION": 51.3435, "RA_OF_ASC_NODE": 168.6023, "ARG_OF_PERICENTER": 229.5038, "MEAN_ANOMALY": 36.3416, "EPHEMERIS_TYPE": 0, "CLASSIFICATION_TYPE": "U", "NORAD_CAT_ID": 66587, "ELEMENT_SET_NO": 999, "REV_AT_EPOCH": 54, "BSTAR": 0.00055683527, "MEAN_MOTION_DOT": 0.00072738, "MEAN_MOTION_DDOT": -9.18653e-07}, "tle": {"line1": "1 66587U 25269B   25351.20156094  .00072738 -91865-6  55684-3 0  9993", "line2": "2 66587  51.3435 168.6023 7516855 229.5038  36.3416  2.03937792   541"}}, "geometry": {"type": "Point", "coordinates": [-82.10705868040576, 49.550867453849094]}}, {"type": "Feature", "properties": {"norad_id": 66588, "name": "STARLINK-36076", "group": "last-30-days", "lat": 20.36649887971169, "lon": -177.38392727349535, "alt_km": 441.6007558819556, "timestamp": "2025-12-18T13:51:48.378793+00:00", "meta": {"OBJECT_NAME": "STARLINK-36076", "OBJECT_ID": "2025-270A", "EPOCH": "2025-12-18T04:23:44.647296", "MEAN_MOTION": 15.40722227, "ECCENTRICITY": 0.00019823, "INCLINATION": 42.9989, "RA_OF_ASC_NODE": 161.4122, "ARG_OF_PERICENTER": 254.1904, "MEAN_ANOMALY": 105.8735, "EPHEMERIS_TYPE": 0, "CLASSIFICATION_TYPE": "U", "NORAD_CAT_ID": 66588, "ELEMENT_SET_NO": 999, "REV_AT_EPOCH": 518, "BSTAR": 0.00096199397, "MEAN_MOTION_DOT": 0.00040123, "MEAN_MOTION_DDOT": 0}, "tle": {"line1": "1 66588U 25270A   25352.18315564  .00040123  00000+0  96199-3 0  9995", "line2": "2 66588  42.9989 161.4122 0001982 254.1904 105.8735 15.40722227  5183"}}, "geometry": {"type": "Point", "coordinates": [-177.38392727349535, 20.36649887971169]}}, {"type": "Feature", "properties": {"norad_id": 66589, "name": "STARLINK-35447", "group": "last-30-days", "lat": 31.389327689268708, "lon": -62.00722850777665, "alt_km": 439.99416783840024, "timestamp": "2025-12-18T13:51:48.378804+00:00", "meta": {"OBJECT_NAME": "STARLINK-35447", "OBJECT_ID": "2025-270B", "EPOCH": "2025-12-18T06:00:02.999808", "MEAN_MOTION": 15.40691721, "ECCENTRICITY": 0.00015225, "INCLINATION": 42.9993, "RA_OF_ASC_NODE": 160.7843, "ARG_OF_PERICENTER": 285.9899, "MEAN_ANOMALY": 184.9004, "EPHEMERIS_TYPE": 0, "CLASSIFICATION_TYPE": "U", "NORAD_CAT_ID": 66589, "ELEMENT_SET_NO": 999, "REV_AT_EPOCH": 539, "BSTAR": 0.00048669877, "MEAN_MOTION_DOT": 0.00020075, "MEAN_MOTION_DDOT": 0}, "tle": {"line1": "1 66589U 25270B   25352.25003472  .00020075  00000+0  48670-3 0  9991", "line2": "2 66589  42.9993 160.7843 0001522 285.9899 184.9004 15.40691721  5390"}}, "geometry": {"type": "Point", "coordinates": [-62.00722850777665, 31.389327689268708]}}]}